{
  "norad_id": 37224,
  "name": "O/OREOS (USA 219)",
  "history": [
    {
      "epoch": "2026-04-14T15:16:01.130016Z",
      "apogee_km": 597.5767634059875,
      "perigee_km": 576.55995275851,
      "latitude_deg": -7.982143422070316e-05,
      "longitude_deg": 152.44406044855566,
      "height_km": 599.7786632078295,
      "semi_major_axis_km": 6965.2053580822485,
      "eccentricity": 0.0015087,
      "inclination_deg": 71.97,
      "raan_deg": 224.2585,
      "arg_perigee_deg": 194.9766,
      "mean_anomaly_deg": 165.0959,
      "mean_motion_rev_day": 14.93488469
    },
    {
      "epoch": "2026-04-15T15:22:48.643392Z",
      "apogee_km": 597.5139714809147,
      "perigee_km": 576.6058434041543,
      "latitude_deg": -8.360098878696937e-07,
      "longitude_deg": 147.48102159035503,
      "height_km": 599.7977101400834,
      "semi_major_axis_km": 6965.196907442534,
      "eccentricity": 0.0015009,
      "inclination_deg": 71.9701,
      "raan_deg": 221.9837,
      "arg_perigee_deg": 193.1634,
      "mean_anomaly_deg": 166.9147,
      "mean_motion_rev_day": 14.93491187
    },
    {
      "epoch": "2026-04-16T17:06:03.195072Z",
      "apogee_km": 597.4575285925666,
      "perigee_km": 576.6399814080223,
      "latitude_deg": 8.604691122277916e-06,
      "longitude_deg": 118.18758273677562,
      "height_km": 599.818147267592,
      "semi_major_axis_km": 6965.185755000294,
      "eccentricity": 0.0014944,
      "inclination_deg": 71.9702,
      "raan_deg": 219.5572,
      "arg_perigee_deg": 191.1737,
      "mean_anomaly_deg": 168.9104,
      "mean_motion_rev_day": 14.93494774
    },
    {
      "epoch": "2026-04-17T17:12:50.430240Z",
      "apogee_km": 597.3995136552894,
      "perigee_km": 576.6800629595746,
      "latitude_deg": 4.565743087270808e-05,
      "longitude_deg": 113.22569221905145,
      "height_km": 599.8189124390838,
      "semi_major_axis_km": 6965.176788307432,
      "eccentricity": 0.00148736,
      "inclination_deg": 71.9703,
      "raan_deg": 217.2824,
      "arg_perigee_deg": 189.3635,
      "mean_anomaly_deg": 170.7261,
      "mean_motion_rev_day": 14.93497658
    },
    {
      "epoch": "2026-04-18T14:06:43.199136Z",
      "apogee_km": 597.3495029253545,
      "perigee_km": 576.7117113054719,
      "latitude_deg": 2.0113078725169103e-05,
      "longitude_deg": 156.92606386354825,
      "height_km": 599.8112771586094,
      "semi_major_axis_km": 6965.167607115413,
      "eccentricity": 0.0014815,
      "inclination_deg": 71.9704,
      "raan_deg": 215.3109,
      "arg_perigee_deg": 187.7893,
      "mean_anomaly_deg": 172.305,
      "mean_motion_rev_day": 14.93500611
    },
    {
      "epoch": "2026-04-19T17:26:24.288000Z",
      "apogee_km": 597.2761604794032,
      "perigee_km": 576.7623822290097,
      "latitude_deg": -7.865651828670934e-05,
      "longitude_deg": 103.30440299739695,
      "height_km": 599.7820913679905,
      "semi_major_axis_km": 6965.156271354206,
      "eccentricity": 0.0014726,
      "inclination_deg": 71.9705,
      "raan_deg": 212.7328,
      "arg_perigee_deg": 185.6836,
      "mean_anomaly_deg": 174.4169,
      "mean_motion_rev_day": 14.93504257
    },
    {
      "epoch": "2026-04-20T07:54:28.382688Z",
      "apogee_km": 597.2415884195179,
      "perigee_km": 576.7905060422381,
      "latitude_deg": -2.390635461003125e-05,
      "longitude_deg": -115.67171315202003,
      "height_km": 599.7652112378152,
      "semi_major_axis_km": 6965.153047230878,
      "eccentricity": 0.0014681,
      "inclination_deg": 71.9704,
      "raan_deg": 211.3679,
      "arg_perigee_deg": 184.5592,
      "mean_anomaly_deg": 175.5447,
      "mean_motion_rev_day": 14.93505294
    },
    {
      "epoch": "2026-04-21T16:03:30.309120Z",
      "apogee_km": 597.1484621458403,
      "perigee_km": 576.8534431793723,
      "latitude_deg": 7.395064143737966e-05,
      "longitude_deg": 117.71681293148949,
      "height_km": 599.6972781315932,
      "semi_major_axis_km": 6965.137952662606,
      "eccentricity": 0.0014569,
      "inclination_deg": 71.9705,
      "raan_deg": 208.3348,
      "arg_perigee_deg": 182.0192,
      "mean_anomaly_deg": 178.0923,
      "mean_motion_rev_day": 14.93510149
    },
    {
      "epoch": "2026-04-22T14:33:49.477824Z",
      "apogee_km": 597.0965251077669,
      "perigee_km": 576.8865082038392,
      "latitude_deg": -5.349912808899781e-05,
      "longitude_deg": 137.08953889202562,
      "height_km": 599.650932606907,
      "semi_major_axis_km": 6965.128516655803,
      "eccentricity": 0.0014508,
      "inclination_deg": 71.9705,
      "raan_deg": 206.2117,
      "arg_perigee_deg": 180.2597,
      "mean_anomaly_deg": 179.8568,
      "mean_motion_rev_day": 14.93513184
    },
    {
      "epoch": "2026-04-23T06:38:20.185728Z",
      "apogee_km": 597.0543550660032,
      "perigee_km": 576.9109504254766,
      "latitude_deg": -4.945367421616865e-05,
      "longitude_deg": -106.21519571255637,
      "height_km": 599.6068162087748,
      "semi_major_axis_km": 6965.11965274574,
      "eccentricity": 0.00144602,
      "inclination_deg": 71.9705,
      "raan_deg": 204.6951,
      "arg_perigee_deg": 178.9837,
      "mean_anomaly_deg": 181.1365,
      "mean_motion_rev_day": 14.93516035
    },
    {
      "epoch": "2026-04-24T16:23:48.335712Z",
      "apogee_km": 596.95702780597,
      "perigee_km": 576.9755395058191,
      "latitude_deg": -1.027728708733217e-05,
      "longitude_deg": 102.84643908683134,
      "height_km": 599.4892795379693,
      "semi_major_axis_km": 6965.103283655894,
      "eccentricity": 0.0014344,
      "inclination_deg": 71.9704,
      "raan_deg": 201.5104,
      "arg_perigee_deg": 176.3052,
      "mean_anomaly_deg": 183.8227,
      "mean_motion_rev_day": 14.935213
    },
    {
      "epoch": "2026-04-25T14:54:06.782112Z",
      "apogee_km": 596.8923747626968,
      "perigee_km": 577.008443227498,
      "latitude_deg": 1.096670285827904e-05,
      "longitude_deg": 122.22233304163225,
      "height_km": 599.3989679958205,
      "semi_major_axis_km": 6965.087408995097,
      "eccentricity": 0.0014274,
      "inclination_deg": 71.9703,
      "raan_deg": 199.3874,
      "arg_perigee_deg": 174.5038,
      "mean_anomaly_deg": 185.6292,
      "mean_motion_rev_day": 14.93526406
    },
    {
      "epoch": "2026-04-26T15:00:52.080192Z",
      "apogee_km": 596.805597454585,
      "perigee_km": 577.0568430229205,
      "latitude_deg": 1.984045451474742e-05,
      "longitude_deg": 117.26852565149834,
      "height_km": 599.2763151330253,
      "semi_major_axis_km": 6965.0682202387525,
      "eccentricity": 0.0014177,
      "inclination_deg": 71.9713,
      "raan_deg": 197.1126,
      "arg_perigee_deg": 172.6604,
      "mean_anomaly_deg": 187.4777,
      "mean_motion_rev_day": 14.93532578
    },
    {
      "epoch": "2026-04-27T15:07:37.045632Z",
      "apogee_km": 596.7394600326688,
      "perigee_km": 577.098002869976,
      "latitude_deg": 4.7683868130737345e-05,
      "longitude_deg": 112.31621459719548,
      "height_km": 599.1610730649771,
      "semi_major_axis_km": 6965.055731451323,
      "eccentricity": 0.00141,
      "inclination_deg": 71.9713,
      "raan_deg": 194.8379,
      "arg_perigee_deg": 170.6961,
      "mean_anomaly_deg": 189.4474,
      "mean_motion_rev_day": 14.93536595
    },
    {
      "epoch": "2026-04-28T15:14:21.736320Z",
      "apogee_km": 596.6646601784214,
      "perigee_km": 577.1430436786359,
      "latitude_deg": 1.47289379249732e-05,
      "longitude_deg": 107.3649318245871,
      "height_km": 599.0292379125578,
      "semi_major_axis_km": 6965.040851928528,
      "eccentricity": 0.0014014,
      "inclination_deg": 71.9713,
      "raan_deg": 192.5631,
      "arg_perigee_deg": 168.8136,
      "mean_anomaly_deg": 191.3349,
      "mean_motion_rev_day": 14.93541381
    },
    {
      "epoch": "2026-04-29T15:21:06.166944Z",
      "apogee_km": 596.5938079218413,
      "perigee_km": 577.1864563208974,
      "latitude_deg": 6.449594389799818e-06,
      "longitude_deg": 102.41464327422499,
      "height_km": 598.8922313967132,
      "semi_major_axis_km": 6965.027132121369,
      "eccentricity": 0.0013932,
      "inclination_deg": 71.9712,
      "raan_deg": 190.2882,
      "arg_perigee_deg": 166.9453,
      "mean_anomaly_deg": 193.2081,
      "mean_motion_rev_day": 14.93545794
    },
    {
      "epoch": "2026-04-30T13:51:23.414976Z",
      "apogee_km": 596.5264834823874,
      "perigee_km": 577.2307435270468,
      "latitude_deg": 1.272395898782425e-05,
      "longitude_deg": 121.79533939686267,
      "height_km": 598.7482127037431,
      "semi_major_axis_km": 6965.015613504717,
      "eccentricity": 0.00138519,
      "inclination_deg": 71.9711,
      "raan_deg": 188.165,
      "arg_perigee_deg": 165.048,
      "mean_anomaly_deg": 195.1103,
      "mean_motion_rev_day": 14.93549499
    },
    {
      "epoch": "2026-05-02T10:51:57.151584Z",
      "apogee_km": 596.4070250570494,
      "perigee_km": 577.293706727567,
      "latitude_deg": -5.191754294096493e-05,
      "longitude_deg": 160.55967752368286,
      "height_km": 598.4510705653403,
      "semi_major_axis_km": 6964.987365892308,
      "eccentricity": 0.0013721,
      "inclination_deg": 71.9705,
      "raan_deg": 183.9184,
      "arg_perigee_deg": 161.3343,
      "mean_anomaly_deg": 198.8333,
      "mean_motion_rev_day": 14.93558585
    },
    {
      "epoch": "2026-05-03T14:11:34.298016Z",
      "apogee_km": 596.3306234625297,
      "perigee_km": 577.3371478573354,
      "latitude_deg": 8.08302275157072e-06,
      "longitude_deg": 106.95433774772361,
      "height_km": 598.2486383632058,
      "semi_major_axis_km": 6964.970885659932,
      "eccentricity": 0.0013635,
      "inclination_deg": 71.9702,
      "raan_deg": 181.3401,
      "arg_perigee_deg": 159.0528,
      "mean_anomaly_deg": 201.1204,
      "mean_motion_rev_day": 14.93563886
    }
  ]
}